HTV-X1                  
1 66174U 25241A   26084.95318483  .00001821  00000+0  68990-4 0  9996
2 66174  51.6393 354.7127 0007350 234.4289 125.6008 15.32411432 23439
SZ-21 MODULE            
1 66515U 25246C   26084.41173396  .00034230  00000+0  28093-3 0  9992
2 66515  41.4741 106.4894 0001002 208.3621 151.7166 15.69739008 20549
SHENZHOU-22             
1 66645U 25272A   26084.83710235  .00022588  00000+0  25952-3 0  9994
2 66645  41.4667 109.8476 0004448  22.3282 337.7750 15.61486977279106
SOYUZ-MS 28             
1 66664U 25275A   26084.84151546  .00012012  00000+0  22938-3 0  9995
2 66664  51.6341 352.5134 0006235 232.7336 127.3084 15.48540672557717
DUPLEX                  
1 66906U 98067XS  26084.95569508  .00025808  00000+0  35335-3 0  9998
2 66906  51.6300 348.0289 0003171 182.5217 177.5759 15.57218266 17660
ISS OBJECT XT           
1 66907U 98067XT  26084.92001669  .00171705  00000+0  11071-2 0  9993
2 66907  51.6250 342.5073 0005589 184.5234 175.5716 15.75072820 17734
ISS OBJECT XU           
1 66908U 98067XU  26084.98009811  .00188052  00000+0  11968-2 0  9995
2 66908  51.6241 342.1545 0005774 185.2670 174.8270 15.75317303 17749
SILVERSAT               
1 66909U 98067XV  26084.94292545  .00272920  00000+0  13896-2 0  9990
2 66909  51.6221 341.1458 0006490 189.7818 170.3058 15.80068622 17758
ISS OBJECT XW           
1 66910U 98067XW  26084.98811318  .00157170  00000+0  10723-2 0  9996
2 66910  51.6241 342.2050 0006007 183.6743 176.4213 15.73810022 17746
ISS OBJECT XX           
1 66911U 98067XX  26084.89583502  .00376217  00000+0  14416-2 0  9996
2 66911  51.6196 340.0495 0008095 193.1945 166.8848 15.85837323 17758
ISS OBJECT XY           
1 66912U 98067XY  26084.98924515  .00093093  00000+0  85393-3 0  9991
2 66912  51.6275 344.4907 0004127 183.4401 176.6567 15.66963381 17709
KNACKSAT-2              
1 67683U 98067XZ  26084.75570767  .00039524  00000+0  62196-3 0  9993
2 67683  51.6320 351.9429 0009864 244.0094 115.9880 15.53147320  7282
